#dP2021  3 13  0  0  0.00000000      96 __u+U ITR00 EXT  IAC
## 2148 518400.00000000   900.00000000 59286 0.0000000000000
+  115   C06C07C08C09C10C11C12C13C14C16C19C20C21C22C23C24C25
+        C26C27C28C29C30C32C33C34C35C36C37C38C39C40C41C42C43
+        C44C45C46E01E02E03E04E05E07E08E09E11E12E13E14E15E18
+        E19E21E24E25E26E27E30E31E33G01G02G03G04G05G06G07G08
+        G09G10G11G12G13G14G15G16G17G18G19G21G22G23G24G25G26
+        G27G28G29G30G31G32J01J02J03R01R02R03R04R05R07R08R09
+        R11R12R13R14R15R16R17R18R19R20R21R22R24  0  0  0  0
++        10 10 11 11 11  9  6  9 10 13  9  9  7  8  9 10  7
++        10 10  8  9  9  9  8  9  7 10  9 10 11  9  8 10 10
++        10 10  8  7  8  9  9  9  7  7  9  8  8  8  8  7  7
++         7  8  8  9  8  8  8  9  9  8  8  6  8  9  7  8  7
++         7  8  9  9  8  8  8  7  8  7  7  8  8  8  8  7  8
++         7  8  8  8  8  5 15 10 11 10  9  7  8  9  6  9 10
++        10  9  7  9  8  9  9  9  8 10  8  7  9  0  0  0  0
%c M  cc GPS ccc cccc cccc cccc cccc ccccc ccccc ccccc ccccc
%c cc cc ccc ccc cccc cccc cccc cccc ccccc ccccc ccccc ccccc
%f  0.0000000  0.000000000  0.00000000000  0.000000000000000
%f  0.0000000  0.000000000  0.00000000000  0.000000000000000
%i    0    0    0    0      0      0      0      0         0
%i    0    0    0    0      0      0      0      0         0
/* IAC                                ULTRA-RAPID PREDICTION
/* S/V CLOCKS ARE ALIGNED TO GNSS TIME                      
/* G:C1WC2W R:C1PC2P E:C1XC5X C:C2IC6I J:C1CC2S             
/* PCV:IGS14_2134 OL/AL:FES2004  NONE     YN ORB:CoN CLK:CoN
*  2021 03 13  0 15  0.00000000
PC06 -17227.016901  21534.078243  32216.041333    171.452202
PC07 -21218.576421  36745.470573   -593.252511    -11.273100
PC08  -5537.127928  28932.415757 -29893.230363   -901.494631
PC09   -549.901642  24732.316096  34444.016443    672.855376
PC10 -10403.720952  38861.612116 -13134.413484    -72.660474
PC11  -4254.718293 -16209.116565  22383.804404   -872.429668
PC12  15731.673289 -10189.398938  20706.510721    860.395070
PC13   5251.377464  37113.947199 -18939.133840    177.685550
PC14   5039.581506 -22094.155268 -16220.260559    196.241207
PC16 -12696.261497  22297.097613  33523.084543   -731.983449
PC19   4075.584401  17450.758192  21425.266371    759.415937
PC20 -12129.492014  23161.812887   9814.412350   -928.561238
PC21  21886.003382 -15199.565167   8277.915327   -881.759088
PC22  18386.043296   1492.458423  20938.700163   -914.131027
PC23 -17239.446202 -12317.537054  18161.026520   -877.365728
PC24   3316.099381 -23923.925120 -14016.281579   -781.300569
PC25 -10978.865685 -25419.834990   3558.105636   -949.454829
PC26  13755.541567  -9383.563736 -22407.920610    936.293493
PC27 -23351.579479   4588.353182 -14572.542265    497.641081
PC28 -26561.200150  -8231.069387   2358.244626    -99.162299
PC29  14771.750796  15620.871189 -17801.175791    364.168791
PC30  -6473.795720  14752.684995 -22786.545110    451.892742
PC32 -21766.354020  15402.487397  -8225.834632   -911.134582
PC33  -4119.900086 -17470.217304 -21353.422293   -948.025908
PC34   5792.977693 -14973.822337  22819.731340   -720.378604
PC35  26769.772176   7505.253891  -2648.732557   -377.550522
PC36  10172.246173  25781.449639  -3219.853884   -742.712021
PC37 -14352.551262   8080.802525  22535.474569   -875.517389
PC38  -4425.546255  32030.183746 -26975.336826    135.447553
PC39 -11510.356767  22999.613394  33404.193762     29.322159
PC40 -16969.249305  36428.757224 -13003.536027    140.327173
PC41 -18269.773859  -1678.545752 -20973.412010   -931.930928
PC42  12668.597439 -23112.851577  -9102.805802   -934.618256
PC43 -14180.336619 -15876.713711  18025.154302   -636.782341
PC44  23377.357374  -5275.972418  14323.624671     82.783790
PC45  17182.544342  12199.955879 -18284.071725    385.135529
PC46  -2567.850850  24336.237638  13377.200921    365.735573
PE01 -15540.785404  -6333.562082  24379.421782  -1064.276667
PE02  15585.100706   6167.925534 -24401.488933    204.589367
PE03  25914.969042   1225.602968  14241.089929   -408.221328
PE04 -26638.388623  12417.618375   3520.491684   -727.676746
PE05   9969.487147  14346.960651  23897.820626   -297.534022
PE07  11629.255029 -18964.804521 -19516.084807   -511.983503
PE08  26456.123122 -12701.946735  -3818.630708   6034.086515
PE09 -11420.898640  18930.341018  19693.407075   5736.795435
PE11   -438.182846  18920.380127 -22767.533760   6214.359265
PE12 -18407.668187   4196.455216 -22784.781578   5313.273642
PE13    784.234153 -18637.388161  22988.758707    413.452877
PE14 -22114.603568  15665.106093 -16715.205032  -1359.729898
PE15  18354.132764  -4217.674816  22850.254673    824.970031
PE18  21784.532916  -7945.930526   7840.433235  -1486.843991
PE19 -24739.514167  -2833.686545 -15994.071347    225.338999
PE21  -6478.942482 -24264.082727  15667.842899   -653.271184
PE24  -7233.168951  28520.310765   3070.411772   -789.555718
PE25   6371.588839  24369.854162 -15537.807371   -528.326062
PE26 -17602.493621 -22078.776809   8883.186477   2048.891460
PE27   6674.744334 -28744.370149  -2422.919157     11.710627
PE30  16147.414451 -15412.676502 -19462.222479   3111.818006
PE31 -15824.057135  16290.218912  18981.463923   -479.112492
PE33 -25089.514584 -12667.555948  -9254.118006   -466.473445
PG01  20016.479454  11090.273291  13527.762089    742.589222
PG02 -12351.602763 -22161.955675   8445.377330   -585.526827
PG03  15654.564465    386.664673  21358.408096   -106.420924
PG04  25429.907324   2344.962411   7408.657156   -185.810835
PG05  -7171.062471 -18091.393453 -18145.529456    -36.055814
PG06  -1102.445615 -20085.011320  17379.235180      0.572313
PG07  16092.053588  -3244.166535 -20631.839148     87.928889
PG08  21633.112021   6389.554827 -14258.526491    -13.498432
PG09  25434.139619  -6797.599961  -3659.846885   -330.543763
PG10 -11623.064143  23489.466936  -3193.425695    -79.739698
PG11  24594.104991   9161.675588   2062.616878     -0.551039
PG12 -13833.081267  -5359.486320  21776.043961    -13.091179
PG13 -12893.761233 -13106.690939 -19348.042708    107.137511
PG14  13491.514725 -22453.466113  -4360.611299     99.863511
PG15 -22452.595021  -4849.257741 -13987.265534   -163.545185
PG16   3058.557643  19933.440406 -17276.119947   -293.109486
PG17  14385.756770 -13444.999027  18251.528859    408.688071
PG18 -13561.181304   6950.063121 -21762.907911    350.338325
PG19   5978.956880 -14421.410706  21188.441359    -27.147678
PG21  20984.902955  15344.268156   7227.174184    102.645472
PG22  13117.049039  10301.739612  20896.733824   -661.717316
PG23 -15922.130520  16621.147007 -13237.461559    117.642825
PG24 -21053.614754 -14219.656220   8155.461279      1.151357
PG25 -17008.994527   9966.105402  17403.831572     97.649366
PG26  -2589.030957  25061.596021  -8022.198537     57.217048
PG27  10350.766885  12850.694427 -21056.907028    -92.856583
PG28  12555.103183 -23485.659224   -740.806616    603.044197
PG29 -25826.036206   4710.444349  -4219.782039   -310.749709
PG30   7064.413433 -15465.519049 -20305.780689   -397.547046
PG31   2719.708827  21391.200222  15112.577906   -105.236155
PG32 -12135.104592  14923.301936  18343.863794     21.048019
PJ01 -29233.571590  30286.504795   7427.199795   -354.534159
PJ02 -28100.967132  25609.563840  23088.195480      3.261472
PJ03 -30675.267843  15897.665441 -19563.023487     -1.670134
PR01 -21294.033779  12451.461318  -6520.798729     76.312654
PR02 -12374.087751  17276.309265  14107.123522    470.499535
PR03   3639.051826  10820.272600  22851.250195     32.294533
PR04  17240.638673  -1782.541367  18746.601976     77.637034
PR05  21401.760365 -13273.476486   4144.117814     68.054992
PR07  -4117.651732 -10463.065555 -22859.756741    -42.539004
PR08 -17310.722010   1790.991029 -18583.805073    -57.890120
PR09   1513.006894 -23755.834507  -9064.284244    -17.416892
PR11 -11183.325168  -9373.270665  20925.995946      2.354180
PR12  -9092.633105  10339.095557  21486.884262    212.078171
PR13  -1604.499827  23562.744222   9611.034675    -51.928921
PR14   6851.250167  23069.466880  -8466.975893     61.951452
PR15  11170.513421   9114.199392 -21027.915854    104.957789
PR16   8686.199362 -11656.822775 -21023.123137    -12.409597
PR17  15032.599852  14070.285519 -15025.209648    407.471811
PR18  23491.336746   9971.453034   1036.554615     69.580946
PR19  19806.539656   1551.478283  16003.667118   -135.472477
PR20   2961.371707 -10031.788263  23273.119020    -45.096809
PR21 -15958.579023 -14039.336274  14120.312357   -193.941065
PR22 -23490.055540  -9561.063598  -2174.610845   -102.292882
PR24  -2228.481691  10821.366469 -22971.389252     34.772048
EOF
